#aV2022  6 23  0  0  0.00000000     288 DD+AD WGS84 FIT  NGA
## 2215 345600.00000000   300.00000000 59753 0.0000000000000
+   32     1  2  3  4  5  6  7  8  9 10 11 12 13 14 15 16 17
+         18 19 20 21 22 23 24 25 26 27 28 29 30 31 32  0  0
+          0  0  0  0  0  0  0  0  0  0  0  0  0  0  0  0  0
+          0  0  0  0  0  0  0  0  0  0  0  0  0  0  0  0  0
+          0  0  0  0  0  0  0  0  0  0  0  0  0  0  0  0  0
++         2  2  2  2  2  2  2  2  2  2  2  2  2  2  2  2  2
++         2  2  2  2  2  2  2  2  2  2  2  2  2  2  2  0  0
++         0  0  0  0  0  0  0  0  0  0  0  0  0  0  0  0  0
++         0  0  0  0  0  0  0  0  0  0  0  0  0  0  0  0  0
++         0  0  0  0  0  0  0  0  0  0  0  0  0  0  0  0  0
%c cc cc ccc ccc cccc cccc cccc cccc ccccc ccccc ccccc ccccc
%c cc cc ccc ccc cccc cccc cccc cccc ccccc ccccc ccccc ccccc
%f  0.0000000  0.000000000  0.00000000000  0.000000000000000
%f  0.0000000  0.000000000  0.00000000000  0.000000000000000
%i    0    0    0    0      0      0      0      0         0
%i    0    0    0    0      0      0      0      0         0
/*      NGA, ST. LOUIS,MO.                                  
/*   EPHEMERIS COMPUTED FROM 2 DAYS OF DATA                 
/*   EPOCHA v7 SMOOTHER                                     
/*   G2139 IERS2010 SATIGS SATAPC                           
*  2022  6 23 23 15  0.00000000
P  1 -13347.008559  22319.971987  -4676.534528    335.142857                    
V  1  -5131.316250   3103.740330  31845.872495     -0.077524                    
P  2  18888.918812 -10852.344817 -14650.803963   -652.365741                    
V  2  -8821.389038  17714.569851 -23314.358641      0.004203                    
P  3 -10174.260067  13035.470527 -20872.499028   -287.725782                    
V  3 -25942.713905  -3946.901533  10349.393085     -0.113313                    
P  4  -4145.765256  20600.046530 -16180.132153   -153.775496                    
V  4  -9239.922443 -18514.176728 -21276.511870      0.041996                    
P  5  22985.788593  -6363.769497  11673.025672    -86.622505                    
V  5  14804.123942   3468.588603 -26724.741996     -0.013852                    
P  6  14267.972580   4998.216784 -21788.236411    356.070464                    
V  6 -16512.518992  22267.717613  -5614.106065      0.157908                    
P  7     25.395397  20333.500095  17230.395653    321.233911                    
V  7 -14562.318245  15713.689105 -19470.464901     -0.007934                    
P  8  -9417.818775  13797.769630  20524.745157    -73.385106                    
V  8 -11817.924586 -23450.534459  10665.897669     -0.015091                    
P  9   4923.394680  24830.062100  -8052.974415   -325.654146                    
V  9  -6745.763291  -8099.487316 -29366.778575      0.034921                    
P 10 -19961.445441 -11610.269155  13529.081095   -466.464506                    
V 10  16872.153284    343.415442  25177.806321     -0.144401                    
P 11  20318.862875  -7678.998778 -15273.060942    -13.247759                    
V 11 -10957.854097  16118.731145 -22710.191532      0.020482                    
P 12  14324.002686 -11003.550483 -19704.832730   -235.779236                    
V 12  23791.628830   5763.578982  14375.243763     -0.058857                    
P 13  14565.517577  -3507.384884  21779.169260    335.510327                    
V 13   7450.496696  26989.078923   -459.523087      0.070144                    
P 14  18368.525820  13084.843233  14108.775045   -111.872674                    
V 14 -18028.553566   -572.359958  23905.944244     -0.003334                    
P 15   8119.464699 -15182.806468  19729.953030    -50.860965                    
V 15  14612.984577  21766.815332  10826.352806      0.030047                    
P 16 -25683.260337   -301.512172   7359.261555   -511.028505                    
V 16  -8942.160714  -4047.168602 -29803.138970     -0.025707                    
P 17  13284.326710  21380.045347  -7956.972613    628.686435                    
V 17   1469.697166  10827.816074  29980.837029      0.045990                    
P 18   1200.537604 -20338.671973  16966.247671    133.538247                    
V 18  14585.590797 -15991.821764 -20302.920085     -0.109916                    
P 19  15708.942209  14875.380334 -15816.253719    174.671561                    
V 19   4369.269114  19044.090408  22401.230168      0.050167                    
P 20  26404.925624  -1199.122075    272.031114    508.919418                    
V 20    479.262986   3541.519842 -31522.926536     -0.031584                    
P 21 -17373.275365  18605.388784   6792.461667    161.298281                    
V 21   1577.313374  -8434.327910  30596.390411     -0.000639                    
P 22 -16321.701003 -12343.356324 -16609.561626    280.809529                    
V 22  -5160.731852 -21280.645829  20203.600457      0.063584                    
P 23  -9762.992892 -14631.182639  19923.765003    -29.603379                    
V 23  25249.127140   1325.927259  13232.726264     -0.019655                    
P 24  14160.428985 -22196.365923    136.650047    213.868507                    
V 24   3126.544304   2607.276688  31416.330576     -0.088873                    
P 25  -1230.151725 -15589.427471 -21775.900613    341.009759                    
V 25  26812.511017   2858.397395  -3342.094203      0.045853                    
P 26 -26166.976714  -4250.380462  -3511.692914    214.191266                    
V 26   4525.897970  -2948.393353 -30611.959730      0.023168                    
P 27 -15858.922012   -356.394800  21151.364715    217.748114                    
V 27 -10316.619215 -25232.686349  -7697.975615      0.025208                    
P 28  23603.445050  10008.598736   6961.777700    332.375364                    
V 28  -8573.454605    757.270427  30419.406913     -0.083080                    
P 29  -3334.326160 -25253.707648  -7440.285820   -526.983018                    
V 29   5024.374647   8193.717826 -30344.674245     -0.037162                    
P 30   8806.583348  13831.192835  20946.441045   -532.240720                    
V 30 -16954.207634  20426.629133  -6641.126436     -0.010644                    
P 31 -16573.919798  -2764.158240 -20800.138925   -183.007107                    
V 31  15596.907672 -20848.341019  -9261.124513     -0.015252                    
P 32 -15893.142637 -18827.783118 -10012.334834   -158.702200                    
V 32  -2880.701061 -12788.095094  28014.640100     -0.095340                    
EOF
